[Satellite]
VERSION=1.1
NAME=SL-16 R/B
NICKNAME=SL-16 R/B
TLE1=1 20625U 90046B   22342.51485623 -.00000251  00000+0 -10555-3 0  9999
TLE2=2 20625  70.9991 270.5498 0016360 303.0915  56.8636 14.14711716680476
STATUS=0
